{
  "norad_id": 41021,
  "name": "ZHONGXING-2C",
  "history": [
    {
      "epoch": "2026-03-28T22:07:23.378304Z",
      "apogee_km": 35815.88206626437,
      "perigee_km": 35758.37707571486,
      "latitude_deg": 0.046347930466702825,
      "longitude_deg": 103.48136870819248,
      "height_km": 35765.831729134086,
      "semi_major_axis_km": 42165.26657098962,
      "eccentricity": 0.0006819,
      "inclination_deg": 0.0685,
      "raan_deg": 104.2374,
      "arg_perigee_deg": 113.8779,
      "mean_anomaly_deg": 43.4712,
      "mean_motion_rev_day": 1.00269878
    },
    {
      "epoch": "2026-03-29T01:32:41.111808Z",
      "apogee_km": 35815.85981058836,
      "perigee_km": 35758.44755079753,
      "latitude_deg": -0.01593883694741111,
      "longitude_deg": 103.50358647818003,
      "height_km": 35789.31249201161,
      "semi_major_axis_km": 42165.290680692946,
      "eccentricity": 0.0006808,
      "inclination_deg": 0.0688,
      "raan_deg": 104.0903,
      "arg_perigee_deg": 113.9755,
      "mean_anomaly_deg": 94.9838,
      "mean_motion_rev_day": 1.00269792
    },
    {
      "epoch": "2026-03-30T01:30:14.403744Z",
      "apogee_km": 35815.81150629453,
      "perigee_km": 35758.72966412197,
      "latitude_deg": -0.015682011510590437,
      "longitude_deg": 103.49473101075759,
      "height_km": 35789.8468704974,
      "semi_major_axis_km": 42165.40758520825,
      "eccentricity": 0.00067688,
      "inclination_deg": 0.0716,
      "raan_deg": 103.5612,
      "arg_perigee_deg": 114.0076,
      "mean_anomaly_deg": 95.8464,
      "mean_motion_rev_day": 1.00269375
    },
    {
      "epoch": "2026-03-30T10:03:40.157856Z",
      "apogee_km": 35815.77518465421,
      "perigee_km": 35758.82485879518,
      "latitude_deg": -0.0483691450209967,
      "longitude_deg": 103.35979001144838,
      "height_km": 35807.08253397671,
      "semi_major_axis_km": 42165.4370217247,
      "eccentricity": 0.00067532,
      "inclination_deg": 0.0727,
      "raan_deg": 103.4242,
      "arg_perigee_deg": 114.2934,
      "mean_anomaly_deg": 224.4039,
      "mean_motion_rev_day": 1.0026927
    },
    {
      "epoch": "2026-03-30T22:02:23.191872Z",
      "apogee_km": 35815.66211163265,
      "perigee_km": 35759.00689750026,
      "latitude_deg": 0.04865674512462511,
      "longitude_deg": 103.46511052730979,
      "height_km": 35766.86693330619,
      "semi_major_axis_km": 42165.471504566456,
      "eccentricity": 0.00067182,
      "inclination_deg": 0.0743,
      "raan_deg": 103.0981,
      "arg_perigee_deg": 114.169,
      "mean_anomaly_deg": 45.0227,
      "mean_motion_rev_day": 1.00269147
    },
    {
      "epoch": "2026-03-31T20:02:31.031232Z",
      "apogee_km": 35815.43621837527,
      "perigee_km": 35759.39819683336,
      "latitude_deg": 0.07155574832368801,
      "longitude_deg": 103.42192786259737,
      "height_km": 35759.99244291906,
      "semi_major_axis_km": 42165.55420760431,
      "eccentricity": 0.0006645,
      "inclination_deg": 0.0772,
      "raan_deg": 102.453,
      "arg_perigee_deg": 114.3255,
      "mean_anomaly_deg": 16.4399,
      "mean_motion_rev_day": 1.00268852
    },
    {
      "epoch": "2026-04-01T19:50:21.824736Z",
      "apogee_km": 35815.159990721324,
      "perigee_km": 35759.85553105294,
      "latitude_deg": 0.07266240061574036,
      "longitude_deg": 103.40726635696795,
      "height_km": 35760.236130000616,
      "semi_major_axis_km": 42165.64476088713,
      "eccentricity": 0.0006558,
      "inclination_deg": 0.0803,
      "raan_deg": 101.7262,
      "arg_perigee_deg": 114.3384,
      "mean_anomaly_deg": 15.0832,
      "mean_motion_rev_day": 1.00268529
    }
  ]
}